{
  "type": "FeatureCollection",
  "features": [
    {
      "type": "Feature",
      "properties": {
        "norad_id": 31922,
        "name": "FENGYUN 1C DEB",
        "group": "fengyun-1c-debris",
        "lat": -62.111828761008574,
        "lon": 5.314095927094839,
        "alt_km": 888.2724766256479,
        "timestamp": "2025-12-23T11:34:48.447686+00:00",
        "meta_object_name": "FENGYUN 1C DEB",
        "meta_object_id": "1999-025CLZ",
        "meta_epoch": "2025-12-22T12:13:39.251712",
        "meta_mean_motion": 13.86641543,
        "meta_eccentricity": 0.01614897,
        "meta_inclination": 98.8059,
        "meta_ra_of_asc_node": 347.3657,
        "meta_arg_of_pericenter": 359.9761,
        "meta_mean_anomaly": 123.6463,
        "meta_ephemeris_type": 0,
        "meta_classification_type": "U",
        "meta_norad_cat_id": 31922,
        "meta_element_set_no": 999,
        "meta_rev_at_epoch": 93152,
        "meta_bstar": 0.0015992024,
        "meta_mean_motion_dot": 2.02e-05,
        "meta_mean_motion_ddot": 0,
        "tle_line1": "1 31922U 99025CLZ 25356.50948208  .00002020  00000+0  15992-2 0  9990",
        "tle_line2": "2 31922  98.8059 347.3657 0161489 359.9761 123.6463 13.86641543931528"
      },
      "geometry": {
        "type": "Point",
        "coordinates": [
          5.314095927094839,
          -62.111828761008574
        ]
      }
    },
    {
      "type": "Feature",
      "properties": {
        "norad_id": 31923,
        "name": "FENGYUN 1C DEB",
        "group": "fengyun-1c-debris",
        "lat": -16.19813061450962,
        "lon": 92.15042341148353,
        "alt_km": 969.7020920957711,
        "timestamp": "2025-12-23T11:34:48.447696+00:00",
        "meta_object_name": "FENGYUN 1C DEB",
        "meta_object_id": "1999-025CMA",
        "meta_epoch": "2025-12-20T05:40:47.009280",
        "meta_mean_motion": 13.54908967,
        "meta_eccentricity": 0.0300717,
        "meta_inclination": 98.4358,
        "meta_ra_of_asc_node": 86.9011,
        "meta_arg_of_pericenter": 284.1241,
        "meta_mean_anomaly": 72.6659,
        "meta_ephemeris_type": 0,
        "meta_classification_type": "U",
        "meta_norad_cat_id": 31923,
        "meta_element_set_no": 999,
        "meta_rev_at_epoch": 63736,
        "meta_bstar": 0.0012343,
        "meta_mean_motion_dot": 1.096e-05,
        "meta_mean_motion_ddot": 0,
        "tle_line1": "1 31923U 99025CMA 25354.23665520  .00001096  00000+0  12343-2 0  9991",
        "tle_line2": "2 31923  98.4358  86.9011 0300717 284.1241  72.6659 13.54908967637364"
      },
      "geometry": {
        "type": "Point",
        "coordinates": [
          92.15042341148353,
          -16.19813061450962
        ]
      }
    },
    {
      "type": "Feature",
      "properties": {
        "norad_id": 31924,
        "name": "FENGYUN 1C DEB",
        "group": "fengyun-1c-debris",
        "lat": -56.445917459939984,
        "lon": -39.485780115680534,
        "alt_km": 1226.1873526782229,
        "timestamp": "2025-12-23T11:34:48.447705+00:00",
        "meta_object_name": "FENGYUN 1C DEB",
        "meta_object_id": "1999-025CMB",
        "meta_epoch": "2025-12-19T09:36:23.607072",
        "meta_mean_motion": 13.63925419,
        "meta_eccentricity": 0.0272605,
        "meta_inclination": 98.4004,
        "meta_ra_of_asc_node": 149.8539,
        "meta_arg_of_pericenter": 79.2769,
        "meta_mean_anomaly": 283.8942,
        "meta_ephemeris_type": 0,
        "meta_classification_type": "U",
        "meta_norad_cat_id": 31924,
        "meta_element_set_no": 999,
        "meta_rev_at_epoch": 91558,
        "meta_bstar": 0.0010228,
        "meta_mean_motion_dot": 1.012e-05,
        "meta_mean_motion_ddot": 0,
        "tle_line1": "1 31924U 99025CMB 25353.40027323  .00001012  00000+0  10228-2 0  9991",
        "tle_line2": "2 31924  98.4004 149.8539 0272605  79.2769 283.8942 13.63925419915584"
      },
      "geometry": {
        "type": "Point",
        "coordinates": [
          -39.485780115680534,
          -56.445917459939984
        ]
      }
    },
    {
      "type": "Feature",
      "properties": {
        "norad_id": 31926,
        "name": "FENGYUN 1C DEB",
        "group": "fengyun-1c-debris",
        "lat": 10.226418203709724,
        "lon": 91.41138959970553,
        "alt_km": 814.5873441099775,
        "timestamp": "2025-12-23T11:34:48.447714+00:00",
        "meta_object_name": "FENGYUN 1C DEB",
        "meta_object_id": "1999-025CMD",
        "meta_epoch": "2025-12-21T17:34:26.622912",
        "meta_mean_motion": 14.30822886,
        "meta_eccentricity": 0.00399933,
        "meta_inclination": 98.957,
        "meta_ra_of_asc_node": 91.2393,
        "meta_arg_of_pericenter": 227.9748,
        "meta_mean_anomaly": 131.8026,
        "meta_ephemeris_type": 0,
        "meta_classification_type": "U",
        "meta_norad_cat_id": 31926,
        "meta_element_set_no": 999,
        "meta_rev_at_epoch": 95356,
        "meta_bstar": 0.0018185713,
        "meta_mean_motion_dot": 4.765e-05,
        "meta_mean_motion_ddot": 0,
        "tle_line1": "1 31926U 99025CMD 25355.73225258  .00004765  00000+0  18186-2 0  9997",
        "tle_line2": "2 31926  98.9570  91.2393 0039993 227.9748 131.8026 14.30822886953561"
      },
      "geometry": {
        "type": "Point",
        "coordinates": [
          91.41138959970553,
          10.226418203709724
        ]
      }
    },
    {
      "type": "Feature",
      "properties": {
        "norad_id": 31929,
        "name": "FENGYUN 1C DEB",
        "group": "fengyun-1c-debris",
        "lat": -80.51747752992944,
        "lon": -120.87967207035933,
        "alt_km": 806.449755316452,
        "timestamp": "2025-12-23T11:34:48.447723+00:00",
        "meta_object_name": "FENGYUN 1C DEB",
        "meta_object_id": "1999-025CME",
        "meta_epoch": "2025-12-22T02:32:39.971616",
        "meta_mean_motion": 14.34959053,
        "meta_eccentricity": 0.00738159,
        "meta_inclination": 98.792,
        "meta_ra_of_asc_node": 125.6264,
        "meta_arg_of_pericenter": 27.8145,
        "meta_mean_anomaly": 332.6956,
        "meta_ephemeris_type": 0,
        "meta_classification_type": "U",
        "meta_norad_cat_id": 31929,
        "meta_element_set_no": 999,
        "meta_rev_at_epoch": 70780,
        "meta_bstar": 0.00037508809,
        "meta_mean_motion_dot": 1.055e-05,
        "meta_mean_motion_ddot": 0,
        "tle_line1": "1 31929U 99025CME 25356.10601819  .00001055  00000+0  37509-3 0  9993",
        "tle_line2": "2 31929  98.7920 125.6264 0073815  27.8145 332.6956 14.34959053707807"
      },
      "geometry": {
        "type": "Point",
        "coordinates": [
          -120.87967207035933,
          -80.51747752992944
        ]
      }
    },
    {
      "type": "Feature",
      "properties": {
        "norad_id": 31931,
        "name": "FENGYUN 1C DEB",
        "group": "fengyun-1c-debris",
        "lat": 43.95011434411816,
        "lon": -62.042476543517566,
        "alt_km": 1396.5090140844559,
        "timestamp": "2025-12-23T11:34:48.447733+00:00",
        "meta_object_name": "FENGYUN 1C DEB",
        "meta_object_id": "1999-025CMG",
        "meta_epoch": "2025-12-22T03:09:05.948640",
        "meta_mean_motion": 13.42631003,
        "meta_eccentricity": 0.04225158,
        "meta_inclination": 97.8149,
        "meta_ra_of_asc_node": 304.5136,
        "meta_arg_of_pericenter": 245.1693,
        "meta_mean_anomaly": 110.4952,
        "meta_ephemeris_type": 0,
        "meta_classification_type": "U",
        "meta_norad_cat_id": 31931,
        "meta_element_set_no": 999,
        "meta_rev_at_epoch": 65348,
        "meta_bstar": 0.00053965777,
        "meta_mean_motion_dot": 4.88e-06,
        "meta_mean_motion_ddot": 0,
        "tle_line1": "1 31931U 99025CMG 25356.13131885  .00000488  00000+0  53966-3 0  9994",
        "tle_line2": "2 31931  97.8149 304.5136 0422515 245.1693 110.4952 13.42631003653489"
      },
      "geometry": {
        "type": "Point",
        "coordinates": [
          -62.042476543517566,
          43.95011434411816
        ]
      }
    },
    {
      "type": "Feature",
      "properties": {
        "norad_id": 31934,
        "name": "FENGYUN 1C DEB",
        "group": "fengyun-1c-debris",
        "lat": -26.481435605299694,
        "lon": -136.0091074033401,
        "alt_km": 523.5057833671872,
        "timestamp": "2025-12-23T11:34:48.447742+00:00",
        "meta_object_name": "FENGYUN 1C DEB",
        "meta_object_id": "1999-025CMK",
        "meta_epoch": "2025-12-17T14:29:22.520832",
        "meta_mean_motion": 15.0735698,
        "meta_eccentricity": 0.00367266,
        "meta_inclination": 98.8801,
        "meta_ra_of_asc_node": 41.6776,
        "meta_arg_of_pericenter": 217.4543,
        "meta_mean_anomaly": 142.4121,
        "meta_ephemeris_type": 0,
        "meta_classification_type": "U",
        "meta_norad_cat_id": 31934,
        "meta_element_set_no": 999,
        "meta_rev_at_epoch": 60916,
        "meta_bstar": 0.0026504952,
        "meta_mean_motion_dot": 0.00040819,
        "meta_mean_motion_ddot": 0,
        "tle_line1": "1 31934U 99025CMK 25351.60373288  .00040819  00000+0  26505-2 0  9999",
        "tle_line2": "2 31934  98.8801  41.6776 0036726 217.4543 142.4121 15.07356980609168"
      },
      "geometry": {
        "type": "Point",
        "coordinates": [
          -136.0091074033401,
          -26.481435605299694
        ]
      }
    }
  ]
}